[{"OBJECT_NAME":"STARLINK-6100","OBJECT_ID":"2023-090AA","EPOCH":"2026-03-09T22:00:01.999584","MEAN_MOTION":15.08408741,"ECCENTRICITY":0.0001892,"INCLINATION":43.0003,"RA_OF_ASC_NODE":260.6317,"ARG_OF_PERICENTER":257.2438,"MEAN_ANOMALY":141.5981,"EPHEMERIS_TYPE":0,"CLASSIFICATION_TYPE":"U","NORAD_CAT_ID":57125,"ELEMENT_SET_NO":999,"REV_AT_EPOCH":572,"BSTAR":0.0044194621,"MEAN_MOTION_DOT":0.00070414,"MEAN_MOTION_DDOT":0},{"OBJECT_NAME":"CZ-6A DEB","OBJECT_ID":"2024-140RN","EPOCH":"2026-03-09T09:36:23.350464","MEAN_MOTION":14.99974811,"ECCENTRICITY":0.0047719,"INCLINATION":88.1445,"RA_OF_ASC_NODE":217.6461,"ARG_OF_PERICENTER":172.1525,"MEAN_ANOMALY":188.0467,"EPHEMERIS_TYPE":0,"CLASSIFICATION_TYPE":"U","NORAD_CAT_ID":61168,"ELEMENT_SET_NO":999,"REV_AT_EPOCH":8322,"BSTAR":0.0063622011,"MEAN_MOTION_DOT":0.00081758,"MEAN_MOTION_DDOT":0}]
